{
  "type": "FeatureCollection",
  "generator": "overpass-turbo",
  "copyright": "The data included in this document is from www.openstreetmap.org. The data is made available under ODbL.",
  "timestamp": "2025-01-28T10:15:30Z",
  "features": [
    {
      "type": "Feature",
      "properties": {
        "@id": "way/64132690",
        "amenity": "cafe",
        "building": "yes",
        "indoor_seating": "yes",
        "name": "Fabrizi Espresso",
        "opening_hours": "Mo-Sa 07:00-19:00; Su,PH 09:00-18:00",
        "operator": "Schicker Michael",
        "outdoor_seating": "yes",
        "phone": "+43-662-845914",
        "smoking": "yes"
      },
      "geometry": {
        "type": "Polygon",
        "coordinates": [
          [
            [
              13.0424774,
              47.7998378
            ],
            [
              13.0424948,
              47.799709
            ],
            [
              13.0425419,
              47.7997099
            ],
            [
              13.0425371,
              47.7997617
            ],
            [
              13.0425313,
              47.7998406
            ],
            [
              13.0424774,
              47.7998378
            ]
          ]
        ]
      },
      "id": "way/64132690"
    },
    {
      "type": "Feature",
      "properties": {
        "@id": "node/268243632",
        "addr:city": "Salzburg",
        "addr:housenumber": "8",
        "addr:postcode": "5020",
        "addr:street": "Makartplatz",
        "amenity": "cafe",
        "diet:vegetarian": "yes",
        "indoor_seating": "yes",
        "name": "Cafe Classic",
        "opening_hours": "Mo-Sa 08:00-19:30",
        "outdoor_seating": "yes",
        "wheelchair": "no"
      },
      "geometry": {
        "type": "Point",
        "coordinates": [
          13.0438732,
          47.8026888
        ]
      },
      "id": "node/268243632"
    },
    {
      "type": "Feature",
      "properties": {
        "@id": "node/268243640",
        "addr:city": "Salzburg",
        "addr:housenumber": "3",
        "addr:postcode": "5020",
        "addr:street": "Schwarzstraße",
        "amenity": "cafe",
        "check_date:opening_hours": "2023-07-22",
        "cuisine": "regional;coffee_shop",
        "email": "info@cafe-bazar.at",
        "internet_access": "wlan",
        "name": "Cafe Bazar",
        "opening_hours": "Mo-Sa 07:30-19:30; Su 09:00-18:00",
        "payment:credit_cards": "no",
        "phone": "+43 662 874278",
        "toilets:wheelchair": "yes",
        "website": "https://www.cafe-bazar.at/",
        "wheelchair": "limited",
        "wikidata": "Q1025574",
        "wikipedia": "de:Café Bazar (Salzburg)"
      },
      "geometry": {
        "type": "Point",
        "coordinates": [
          13.0438317,
          47.8018642
        ]
      },
      "id": "node/268243640"
    },
    {
      "type": "Feature",
      "properties": {
        "@id": "node/268243668",
        "amenity": "cafe",
        "check_date": "2023-03-18",
        "cuisine": "cake",
        "name": "220GRAD",
        "opening_hours": "Tu,Th-Su 09:00-18:00; We 09:00-20:00",
        "outdoor_seating": "yes",
        "payment:credit_cards": "yes",
        "website": "https://www.220grad.com/",
        "wheelchair": "yes"
      },
      "geometry": {
        "type": "Point",
        "coordinates": [
          13.043139,
          47.7982223
        ]
      },
      "id": "node/268243668"
    },
    {
      "type": "Feature",
      "properties": {
        "@id": "node/268243701",
        "amenity": "cafe",
        "check_date": "2023-06-29",
        "name": "Kiosk Cafe Tomaselli",
        "wheelchair": "no"
      },
      "geometry": {
        "type": "Point",
        "coordinates": [
          13.0450495,
          47.7988743
        ]
      },
      "id": "node/268243701"
    },
    {
      "type": "Feature",
      "properties": {
        "@id": "node/268243703",
        "addr:city": "Salzburg",
        "addr:country": "AT",
        "addr:housenumber": "13",
        "addr:postcode": "5020",
        "addr:street": "Brodgasse",
        "amenity": "cafe",
        "check_date": "2023-06-29",
        "contact:phone": "+43 662 843 759-0",
        "cuisine": "cake",
        "indoor_seating": "yes",
        "name": "Confiserie Konditorei Fürst",
        "name:ru": "Кафе Ферст",
        "opening_hours": "Mo-Sa 09:00-19:00; Su,PH 10:00-17:00",
        "operator": "Café Konditorei Fürst GmbH",
        "outdoor_seating": "yes",
        "phone": "+43 662 843 759-0",
        "smoking": "no",
        "takeaway": "yes",
        "wheelchair": "limited",
        "wheelchair:description": "Eingang links über Lieferzugang, dort kleine Schwelle"
      },
      "geometry": {
        "type": "Point",
        "coordinates": [
          13.0455572,
          47.7991204
        ]
      },
      "id": "node/268243703"
    },
    {
      "type": "Feature",
      "properties": {
        "@id": "node/317987180",
        "amenity": "cafe",
        "check_date": "2023-08-22",
        "name": "Café in Mozarts Geburtshaus"
      },
      "geometry": {
        "type": "Point",
        "coordinates": [
          13.0435715,
          47.799627
        ]
      },
      "id": "node/317987180"
    },
    {
      "type": "Feature",
      "properties": {
        "@id": "node/572229594",
        "amenity": "cafe",
        "check_date": "2023-07-03",
        "diet:vegan": "yes",
        "diet:vegetarian": "only",
        "indoor_seating": "yes",
        "name": "Tula Bistro",
        "opening_hours": "Mo-Fr 11:00-21:00",
        "outdoor_seating": "yes",
        "phone": "+43 660 9877011",
        "website": "https://www.tula-bistro.at/"
      },
      "geometry": {
        "type": "Point",
        "coordinates": [
          13.0548525,
          47.7969396
        ]
      },
      "id": "node/572229594"
    },
    {
      "type": "Feature",
      "properties": {
        "@id": "node/814217464",
        "addr:city": "Salzburg",
        "addr:country": "AT",
        "addr:housenumber": "22",
        "addr:postcode": "5020",
        "addr:street": "Getreidegasse",
        "amenity": "cafe",
        "check_date:opening_hours": "2024-02-02",
        "contact:email": "info@cafemozartsalzburg.at",
        "cuisine": "coffee_shop",
        "indoor_seating": "yes",
        "internet_access": "wlan",
        "name": "Café Mozart",
        "opening_hours": "Mo-Sa 08:00-21:00; Su 09:00-21:00",
        "outdoor_seating": "no",
        "phone": "+43662843958",
        "toilets:wheelchair": "no",
        "website": "https://www.cafemozartsalzburg.at/",
        "wheelchair": "yes",
        "wikidata": "Q1025644"
      },
      "geometry": {
        "type": "Point",
        "coordinates": [
          13.0426305,
          47.8000821
        ]
      },
      "id": "node/814217464"
    },
    {
      "type": "Feature",
      "properties": {
        "@id": "node/814235255",
        "addr:city": "Salzburg",
        "addr:country": "AT",
        "addr:housenumber": "13",
        "addr:postcode": "5020",
        "addr:street": "Griesgasse",
        "amenity": "cafe",
        "indoor_seating": "yes",
        "layer": "1",
        "name": "Cafe Würfelzucker",
        "opening_hours": "Mo-Su 09:00-18:00",
        "outdoor_seating": "no",
        "wheelchair": "no"
      },
      "geometry": {
        "type": "Point",
        "coordinates": [
          13.0431902,
          47.8005932
        ]
      },
      "id": "node/814235255"
    },
    {
      "type": "Feature",
      "properties": {
        "@id": "node/814235470",
        "addr:city": "Salzburg",
        "addr:housenumber": "5",
        "addr:postcode": "5020",
        "addr:street": "Bürgerspitalplatz",
        "amenity": "cafe",
        "cuisine": "african;breakfast;burger",
        "diet:vegetarian": "yes",
        "email": "cafe.salzburg@afrocoffee.com",
        "indoor_seating": "yes",
        "internet_access": "wlan",
        "internet_access:access": "customers",
        "internet_access:fee": "no",
        "name": "Afro Cafe",
        "opening_hours": "Mo-Sa 09:00-20:00",
        "outdoor_seating": "yes",
        "phone": "+43 662 844888",
        "website": "https://afrocoffee.com/",
        "website:menu": "https://afrocoffee.com/afro-cafe-salzburg/",
        "wheelchair": "no"
      },
      "geometry": {
        "type": "Point",
        "coordinates": [
          13.0397096,
          47.8003541
        ]
      },
      "id": "node/814235470"
    },
    {
      "type": "Feature",
      "properties": {
        "@id": "node/814276649",
        "addr:city": "Salzburg",
        "addr:country": "AT",
        "addr:housenumber": "15",
        "addr:postcode": "5020",
        "addr:street": "Griesgasse",
        "amenity": "cafe",
        "name": "Kramer's",
        "wheelchair": "yes"
      },
      "geometry": {
        "type": "Point",
        "coordinates": [
          13.0429888,
          47.8004793
        ]
      },
      "id": "node/814276649"
    },
    {
      "type": "Feature",
      "properties": {
        "@id": "node/827323877",
        "addr:city": "Salzburg",
        "addr:country": "AT",
        "addr:housenumber": "5-7",
        "addr:postcode": "5020",
        "addr:street": "Schwarzstraße",
        "amenity": "cafe",
        "check_date": "2024-02-05",
        "name": "Café Sacher - Salzachgrill",
        "opening_hours": "Mo-Su 08:00-20:00",
        "wheelchair": "limited"
      },
      "geometry": {
        "type": "Point",
        "coordinates": [
          13.043585,
          47.801989
        ]
      },
      "id": "node/827323877"
    },
    {
      "type": "Feature",
      "properties": {
        "@id": "node/1650949386",
        "addr:city": "Salzburg",
        "addr:country": "AT",
        "addr:housenumber": "38",
        "addr:postcode": "5020",
        "addr:street": "Rudolfskai",
        "amenity": "cafe",
        "contact:email": "post@kaffee-alchemie.at",
        "contact:facebook": "https://www.facebook.com/KaffeeAlchemie",
        "contact:mobile": "+43 681 2017 3143",
        "cuisine": "coffee_shop",
        "indoor_seating": "yes",
        "int_name": "Coffee-Alchemy",
        "internet_access": "wlan",
        "internet_access:fee": "no",
        "name": "Kaffee Alchemie",
        "opening_hours": "Mo-Fr 07:30-18:00; Sa 09:00-18:00; Su,PH off",
        "outdoor_seating": "yes",
        "wheelchair": "no"
      },
      "geometry": {
        "type": "Point",
        "coordinates": [
          13.049474,
          47.7989786
        ]
      },
      "id": "node/1650949386"
    },
    {
      "type": "Feature",
      "properties": {
        "@id": "node/1678153193",
        "addr:city": "Salzburg",
        "addr:country": "AT",
        "addr:housenumber": "9",
        "addr:postcode": "5020",
        "addr:street": "Alter Markt",
        "amenity": "cafe",
        "check_date:opening_hours": "2022-09-30",
        "indoor_seating": "yes",
        "name": "Café Tomaselli",
        "name:ru": "Кафе Томаселли",
        "opening_hours": "Mo-Sa 07:00-19:00; Su 08:00-19:00",
        "outdoor_seating": "yes",
        "phone": "+43 (0) 662 - 84 44 88-0",
        "website": "https://tomaselli.at/",
        "wheelchair": "no",
        "wikidata": "Q980334",
        "wikipedia": "de:Café Tomaselli"
      },
      "geometry": {
        "type": "Point",
        "coordinates": [
          13.0448825,
          47.7992203
        ]
      },
      "id": "node/1678153193"
    },
    {
      "type": "Feature",
      "properties": {
        "@id": "node/1691680861",
        "addr:city": "Salzburg",
        "addr:housename": "Café Central",
        "addr:housenumber": "3",
        "addr:postcode": "5020",
        "addr:street": "Dreifaltigkeitsgasse",
        "amenity": "cafe",
        "name": "Café Central",
        "website": "www.central-salzburg.at",
        "wheelchair": "yes"
      },
      "geometry": {
        "type": "Point",
        "coordinates": [
          13.0448107,
          47.8021374
        ]
      },
      "id": "node/1691680861"
    },
    {
      "type": "Feature",
      "properties": {
        "@id": "node/1836868056",
        "addr:city": "Salzburg",
        "addr:country": "AT",
        "addr:housenumber": "15",
        "addr:postcode": "5020",
        "addr:street": "Universitätsplatz",
        "amenity": "cafe",
        "email": "info@cafeno5-salzburg.at",
        "name": "Cafe No. 5",
        "opening_hours": "Mo-Sa 09:00-17:00; Su 10:00-17:00; We,Th off",
        "outdoor_seating": "yes",
        "phone": "+43 660 52 57 670",
        "website": "https://www.cafeno5-salzburg.at"
      },
      "geometry": {
        "type": "Point",
        "coordinates": [
          13.043797,
          47.7997588
        ]
      },
      "id": "node/1836868056"
    },
    {
      "type": "Feature",
      "properties": {
        "@id": "node/1942706060",
        "amenity": "cafe",
        "check_date": "2023-08-10",
        "check_date:opening_hours": "2024-04-24",
        "cuisine": "ice_cream",
        "indoor_seating": "yes",
        "name": "Café Getreidegasse",
        "opening_hours:signed": "no",
        "outdoor_seating": "no",
        "wheelchair": "no"
      },
      "geometry": {
        "type": "Point",
        "coordinates": [
          13.0418015,
          47.7999317
        ]
      },
      "id": "node/1942706060"
    },
    {
      "type": "Feature",
      "properties": {
        "@id": "node/2222963672",
        "addr:city": "Salzburg",
        "addr:country": "AT",
        "addr:housenumber": "45",
        "addr:postcode": "5020",
        "addr:street": "Imbergstraße",
        "amenity": "cafe",
        "cuisine": "austrian",
        "name": "Die Pâtissière",
        "opening_hours": "Tu-Fr 09:00-18:00; Sa 09:00-17:00",
        "phone": "+4366452222935",
        "website": "http://www.die-patissiere.at"
      },
      "geometry": {
        "type": "Point",
        "coordinates": [
          13.0538125,
          47.7998889
        ]
      },
      "id": "node/2222963672"
    },
    {
      "type": "Feature",
      "properties": {
        "@id": "node/2261987891",
        "addr:city": "Salzburg",
        "addr:country": "AT",
        "addr:housenumber": "5",
        "addr:postcode": "5020",
        "addr:street": "Chiemseegasse",
        "amenity": "cafe",
        "at_bev:addr_date": "2020-10-01",
        "contact:website": "kaffeehaus-salzburg.at",
        "email": "kaffeehaus@hotel-melanie.at",
        "internet_access": "wlan",
        "name": "Das Kaffeehaus",
        "opening_hours": "Mo-Su 09:00-18:00",
        "outdoor_seating": "yes",
        "phone": "+43 660 159 76 69",
        "website": "https://kaffeehaus-salzburg.at/"
      },
      "geometry": {
        "type": "Point",
        "coordinates": [
          13.0495427,
          47.7978606
        ]
      },
      "id": "node/2261987891"
    },
    {
      "type": "Feature",
      "properties": {
        "@id": "node/2367327480",
        "addr:city": "Salzburg",
        "addr:country": "AT",
        "addr:housenumber": "1",
        "addr:postcode": "5020",
        "addr:street": "Mozartplatz",
        "amenity": "cafe",
        "check_date": "2025-01-07",
        "check_date:opening_hours": "2025-01-07",
        "indoor_seating": "yes",
        "name": "MUS.Cafè Museum",
        "opening_hours": "Mo-We 08:30-19:00; Th-Su 08:30-21:00",
        "outdoor_seating": "yes",
        "website": "https://www.cafemus.at/",
        "wheelchair": "yes"
      },
      "geometry": {
        "type": "Point",
        "coordinates": [
          13.0475043,
          47.7986175
        ]
      },
      "id": "node/2367327480"
    },
    {
      "type": "Feature",
      "properties": {
        "@id": "node/2377437237",
        "addr:city": "Salzburg",
        "addr:country": "AT",
        "addr:housenumber": "1",
        "addr:postcode": "5020",
        "addr:street": "Hagenauerplatz",
        "amenity": "cafe",
        "brand": "Starbucks",
        "brand:wikidata": "Q37158",
        "brand:wikipedia": "en:Starbucks",
        "cuisine": "coffee_shop",
        "indoor_seating": "yes",
        "name": "Starbucks",
        "name:ru": "Старбаск-кафе",
        "official_name": "Starbucks Coffee",
        "opening_hours": "Mo-Su,PH 08:00-20:30",
        "outdoor_seating": "yes",
        "takeaway": "yes",
        "toilets:wheelchair": "no",
        "wheelchair": "limited"
      },
      "geometry": {
        "type": "Point",
        "coordinates": [
          13.0434256,
          47.8003649
        ]
      },
      "id": "node/2377437237"
    },
    {
      "type": "Feature",
      "properties": {
        "@id": "node/2463216022",
        "addr:city": "Salzburg",
        "addr:country": "AT",
        "addr:housenumber": "3",
        "addr:postcode": "5020",
        "addr:street": "Pfeifergasse",
        "amenity": "cafe",
        "cuisine": "regional",
        "name": "Fasties",
        "opening_hours": "Mo-Fr 09:00-20:00;Sa 09:00-17:00",
        "wheelchair": "limited"
      },
      "geometry": {
        "type": "Point",
        "coordinates": [
          13.0491159,
          47.7984985
        ]
      },
      "id": "node/2463216022"
    },
    {
      "type": "Feature",
      "properties": {
        "@id": "node/2463216023",
        "addr:city": "Salzburg",
        "addr:country": "AT",
        "addr:housenumber": "1",
        "addr:postcode": "5020",
        "addr:street": "Chiemseegasse",
        "amenity": "cafe",
        "cuisine": "ice_cream",
        "diet:vegan": "yes",
        "name": "Icezeit",
        "takeaway": "yes",
        "website": "https://www.icezeit.at/"
      },
      "geometry": {
        "type": "Point",
        "coordinates": [
          13.0491044,
          47.7978238
        ]
      },
      "id": "node/2463216023"
    },
    {
      "type": "Feature",
      "properties": {
        "@id": "node/2522245261",
        "amenity": "cafe",
        "indoor_seating": "yes",
        "name": "Stadt-Cafè",
        "opening_hours": "Sa-We 08:30-17:00",
        "outdoor_seating": "yes",
        "toilets:wheelchair": "yes",
        "wheelchair": "yes"
      },
      "geometry": {
        "type": "Point",
        "coordinates": [
          13.0392889,
          47.8016608
        ]
      },
      "id": "node/2522245261"
    },
    {
      "type": "Feature",
      "properties": {
        "@id": "node/2526886675",
        "addr:city": "Salzburg",
        "addr:country": "AT",
        "addr:housenumber": "11",
        "addr:postcode": "5020",
        "addr:street": "Sigmund-Haffner-Gasse",
        "amenity": "cafe",
        "name": "M-Cafe imToskanatrakt",
        "source": "http://www.mensen.at/",
        "website": "http://www.mensen.at/"
      },
      "geometry": {
        "type": "Point",
        "coordinates": [
          13.0440864,
          47.7984174
        ]
      },
      "id": "node/2526886675"
    },
    {
      "type": "Feature",
      "properties": {
        "@id": "node/3624045141",
        "addr:housenumber": "1",
        "addr:postcode": "5020",
        "addr:street": "Wiener-Philharmoniker-Gasse",
        "amenity": "cafe",
        "cuisine": "austrian",
        "name": "Herr Leopold",
        "opening_hours": "Sa-Su 08:00-20:00; Mo-Fr 07:30-20:00",
        "operator": "Justus Holzmann Soraya Kühlwein",
        "phone": "+43662840510",
        "website": "http://www.herr-leopold.com"
      },
      "geometry": {
        "type": "Point",
        "coordinates": [
          13.0436371,
          47.79908
        ]
      },
      "id": "node/3624045141"
    },
    {
      "type": "Feature",
      "properties": {
        "@id": "node/3638700486",
        "addr:city": "Salzburg",
        "addr:country": "AT",
        "addr:housenumber": "3",
        "addr:postcode": "5020",
        "addr:street": "Getreidegasse",
        "amenity": "cafe",
        "cuisine": "coffee",
        "indoor_seating": "yes",
        "name": "Schatz-Konditorei",
        "opening_hours": "Mo-Fr 09:00-18:30; Sa 8:00-17:00",
        "outdoor_seating": "yes",
        "website": "https://schatz-konditorei.at/",
        "wikidata": "Q1692261",
        "wikipedia": "de:Schatz-Konditorei"
      },
      "geometry": {
        "type": "Point",
        "coordinates": [
          13.043899,
          47.7996473
        ]
      },
      "id": "node/3638700486"
    },
    {
      "type": "Feature",
      "properties": {
        "@id": "node/4755892735",
        "amenity": "cafe",
        "cuisine": "ice_cream",
        "diet:vegan": "yes",
        "name": "Timeless",
        "wheelchair": "no"
      },
      "geometry": {
        "type": "Point",
        "coordinates": [
          13.0456479,
          47.8026947
        ]
      },
      "id": "node/4755892735"
    },
    {
      "type": "Feature",
      "properties": {
        "@id": "node/4830900687",
        "addr:city": "Salzburg",
        "addr:country": "AT",
        "addr:housenumber": "5-7",
        "addr:postcode": "5020",
        "addr:street": "Schwarzstraße",
        "amenity": "cafe",
        "name": "Café Sacher",
        "opening_hours": "Mo-Su 09:00-18:00",
        "source": "visit",
        "wheelchair": "no"
      },
      "geometry": {
        "type": "Point",
        "coordinates": [
          13.0430538,
          47.8023414
        ]
      },
      "id": "node/4830900687"
    },
    {
      "type": "Feature",
      "properties": {
        "@id": "node/5150138026",
        "amenity": "cafe",
        "check_date:opening_hours": "2024-05-30",
        "diet:vegetarian": "yes",
        "indoor_seating": "yes",
        "name": "Café Glockenspiel",
        "opening_hours": "We-Su 10:00-18:00",
        "outdoor_seating": "yes",
        "wheelchair": "yes"
      },
      "geometry": {
        "type": "Point",
        "coordinates": [
          13.0471263,
          47.7989725
        ]
      },
      "id": "node/5150138026"
    },
    {
      "type": "Feature",
      "properties": {
        "@id": "node/5434309258",
        "amenity": "cafe",
        "check_date:opening_hours": "2024-04-12",
        "indoor_seating": "no",
        "name": "nur coffee",
        "opening_hours:signed": "no",
        "outdoor_seating": "no",
        "payment:cash": "no",
        "takeaway": "only",
        "wheelchair": "yes"
      },
      "geometry": {
        "type": "Point",
        "coordinates": [
          13.0401651,
          47.7998873
        ]
      },
      "id": "node/5434309258"
    },
    {
      "type": "Feature",
      "properties": {
        "@id": "node/5740488878",
        "amenity": "cafe",
        "check_date": "2023-08-10",
        "cuisine": "coffee_shop",
        "name": "We Love Coffee",
        "opening_hours": "Mo-Fr 07:30-18:00; Sa, Su 09:00-18:00",
        "takeaway": "only",
        "wheelchair": "limited"
      },
      "geometry": {
        "type": "Point",
        "coordinates": [
          13.0487203,
          47.7994116
        ]
      },
      "id": "node/5740488878"
    },
    {
      "type": "Feature",
      "properties": {
        "@id": "node/5740605925",
        "amenity": "cafe",
        "check_date": "2023-06-27",
        "name": "Lindy's"
      },
      "geometry": {
        "type": "Point",
        "coordinates": [
          13.0515267,
          47.7966475
        ]
      },
      "id": "node/5740605925"
    },
    {
      "type": "Feature",
      "properties": {
        "@id": "node/5740606430",
        "air_conditioning": "yes",
        "amenity": "cafe",
        "check_date": "2023-06-27",
        "diet:vegetarian": "yes",
        "indoor_seating": "yes",
        "name": "220Grad Nonntal",
        "opening_hours": "Tu-Fr 09:00-19:00; Sa 09:00-18:00",
        "outdoor_seating": "yes",
        "smoking": "outside"
      },
      "geometry": {
        "type": "Point",
        "coordinates": [
          13.0525031,
          47.7956311
        ]
      },
      "id": "node/5740606430"
    },
    {
      "type": "Feature",
      "properties": {
        "@id": "node/5740631821",
        "amenity": "cafe",
        "name": "Secession"
      },
      "geometry": {
        "type": "Point",
        "coordinates": [
          13.0495664,
          47.7971433
        ]
      },
      "id": "node/5740631821"
    },
    {
      "type": "Feature",
      "properties": {
        "@id": "node/5740637327",
        "amenity": "cafe",
        "noname": "yes"
      },
      "geometry": {
        "type": "Point",
        "coordinates": [
          13.0512935,
          47.7966934
        ]
      },
      "id": "node/5740637327"
    },
    {
      "type": "Feature",
      "properties": {
        "@id": "node/5743196921",
        "addr:city": "Salzburg",
        "addr:country": "AT",
        "addr:housenumber": "1",
        "addr:postcode": "5020",
        "addr:street": "Steingasse",
        "amenity": "cafe",
        "at_bev:addr_date": "2023-10-01",
        "diet:vegetarian": "yes",
        "indoor_seating": "yes",
        "name": "Darwin",
        "opening_hours": "Mo-Su,PH 09:00-24:00",
        "outdoor_seating": "yes",
        "wheelchair": "yes"
      },
      "geometry": {
        "type": "Point",
        "coordinates": [
          13.0452947,
          47.8016524
        ]
      },
      "id": "node/5743196921"
    },
    {
      "type": "Feature",
      "properties": {
        "@id": "node/5743321322",
        "addr:housenumber": "4",
        "addr:street": "Steingasse",
        "amenity": "cafe",
        "description": "Organic cafe cum brunch restaurant",
        "name": "Rosencafé",
        "opening_hours": "We-Su 09:00-17:00",
        "opening_hours:signed": "no",
        "organic": "only",
        "website": "https://rosen.cafe/",
        "wheelchair": "no"
      },
      "geometry": {
        "type": "Point",
        "coordinates": [
          13.0453527,
          47.801528
        ]
      },
      "id": "node/5743321322"
    },
    {
      "type": "Feature",
      "properties": {
        "@id": "node/7448406115",
        "amenity": "cafe",
        "cafe": "bistro",
        "name": "Alvera Montemio",
        "phone": "+43 676 7283465",
        "website": "https://www.alvera-montemio.at"
      },
      "geometry": {
        "type": "Point",
        "coordinates": [
          13.0491022,
          47.7982813
        ]
      },
      "id": "node/7448406115"
    },
    {
      "type": "Feature",
      "properties": {
        "@id": "node/9425725904",
        "amenity": "cafe",
        "indoor_seating": "yes",
        "name": "Coolinarik",
        "opening_hours": "Tu-Su 09:00-18:00",
        "outdoor_seating": "yes",
        "wheelchair": "limited"
      },
      "geometry": {
        "type": "Point",
        "coordinates": [
          13.0397623,
          47.800593
        ]
      },
      "id": "node/9425725904"
    },
    {
      "type": "Feature",
      "properties": {
        "@id": "node/11768431878",
        "addr:housenumber": "2a",
        "addr:street": "Griesgasse",
        "amenity": "cafe",
        "check_date": "2024-03-28",
        "cuisine": "cake;coffee_shop",
        "diet:vegetarian": "yes",
        "indoor_seating": "yes",
        "name": "KAVA Coffee Roasters",
        "opening_hours": "Mo-Sa 09:00-17:30",
        "outdoor_seating": "yes",
        "payment:cash": "yes",
        "payment:credit_cards": "yes",
        "payment:debit_cards": "yes",
        "phone": "+49 176 44200153",
        "website": "https://kavacoffee.de",
        "wheelchair": "yes"
      },
      "geometry": {
        "type": "Point",
        "coordinates": [
          13.0408457,
          47.8008816
        ]
      },
      "id": "node/11768431878"
    },
    {
      "type": "Feature",
      "properties": {
        "@id": "node/11844141825",
        "amenity": "cafe",
        "cuisine": "bubble_tea",
        "name": "Boba and Chill",
        "wheelchair": "no"
      },
      "geometry": {
        "type": "Point",
        "coordinates": [
          13.0449021,
          47.8003152
        ]
      },
      "id": "node/11844141825"
    },
    {
      "type": "Feature",
      "properties": {
        "@id": "node/12247181724",
        "addr:city": "Salzburg",
        "addr:country": "AT",
        "addr:housenumber": "3",
        "addr:postcode": "5020",
        "addr:street": "Getreidegasse",
        "amenity": "cafe",
        "at_bev:addr_date": "2024-04-01",
        "name": "Kaffeeothek",
        "phone": "+43724235019912",
        "website": "https://www.kaffeeothek.at/standorte/kaffeeothek-salzburg/"
      },
      "geometry": {
        "type": "Point",
        "coordinates": [
          13.0439275,
          47.7997736
        ]
      },
      "id": "node/12247181724"
    },
    {
      "type": "Feature",
      "properties": {
        "@id": "node/12454180701",
        "addr:housenumber": "26",
        "addr:postcode": "5020",
        "addr:street": "Kaigasse",
        "amenity": "cafe",
        "contact:instagram": "mamakerscafe",
        "name": "MA MAKERS Café",
        "opening_hours": "We-Su 09:00-18:00",
        "website:menu": "https://linktr.ee/mamakerscafe"
      },
      "geometry": {
        "type": "Point",
        "coordinates": [
          13.0498305,
          47.7966853
        ]
      },
      "id": "node/12454180701"
    }
  ]
}